{
    "properties":  {
                       "name":  "Gubbio",
                       "op_id":  "4834",
                       "minint_finloc":  "3100580240",
                       "minint_elettorale":  "2100580240",
                       "prov_name":  "Perugia",
                       "prov_istat_code":  "054",
                       "prov_istat_code_num":  54,
                       "prov_acr":  "PG",
                       "reg_name":  "Umbria",
                       "reg_istat_code":  "10",
                       "reg_istat_code_num":  10,
                       "opdm_id":  "4728",
                       "com_catasto_code":  "E256",
                       "com_istat_code":  "054024",
                       "com_istat_code_num":  54024
                   },
    "type":  "Feature",
    "geometry":  {
                     "type":  "MultiPolygon",
                     "coordinates":  [
                                         [
                                             [
                                                 [
                                                     12.52216679478511,
                                                     43.4992619098753
                                                 ],
                                                 [
                                                     12.522289218502076,
                                                     43.49897452791929
                                                 ],
                                                 [
                                                     12.522460749192692,
                                                     43.49868113123484
                                                 ],
                                                 [
                                                     12.523950077148271,
                                                     43.496433866418
                                                 ],
                                                 [
                                                     12.524184622831434,
                                                     43.49616103286922
                                                 ],
                                                 [
                                                     12.533262308523815,
                                                     43.48793959743075
                                                 ],
                                                 [
                                                     12.542872452769599,
                                                     43.47969191700704
                                                 ],
                                                 [
                                                     12.54914353867794,
                                                     43.474720929717634
                                                 ],
                                                 [
                                                     12.551402051672708,
                                                     43.472084759406215
                                                 ],
                                                 [
                                                     12.554725375419833,
                                                     43.46851957869791
                                                 ],
                                                 [
                                                     12.564259684789896,
                                                     43.459799784697694
                                                 ],
                                                 [
                                                     12.5676142034766,
                                                     43.45721462210107
                                                 ],
                                                 [
                                                     12.577634627901014,
                                                     43.44956792728252
                                                 ],
                                                 [
                                                     12.579499671862425,
                                                     43.44834804765387
                                                 ],
                                                 [
                                                     12.584698414627109,
                                                     43.44505181740318
                                                 ],
                                                 [
                                                     12.587203389590648,
                                                     43.443883756528834
                                                 ],
                                                 [
                                                     12.587876991800512,
                                                     43.44373654860429
                                                 ],
                                                 [
                                                     12.588469236651468,
                                                     43.44370894019566
                                                 ],
                                                 [
                                                     12.590175952616196,
                                                     43.44368231004046
                                                 ],
                                                 [
                                                     12.590769206575764,
                                                     43.44370417132437
                                                 ],
                                                 [
                                                     12.59129965722398,
                                                     43.44374151409088
                                                 ],
                                                 [
                                                     12.591916011122091,
                                                     43.44374914146766
                                                 ],
                                                 [
                                                     12.592489731351597,
                                                     43.4436500620859
                                                 ],
                                                 [
                                                     12.59716069426082,
                                                     43.44177888853183
                                                 ],
                                                 [
                                                     12.602866258452881,
                                                     43.43900606841009
                                                 ],
                                                 [
                                                     12.603347604319852,
                                                     43.43875679787112
                                                 ],
                                                 [
                                                     12.604760711837304,
                                                     43.43798293114437
                                                 ],
                                                 [
                                                     12.60495080940961,
                                                     43.4378553810494
                                                 ],
                                                 [
                                                     12.608662378601117,
                                                     43.435239734066954
                                                 ],
                                                 [
                                                     12.616329180234231,
                                                     43.429707753970824
                                                 ],
                                                 [
                                                     12.619584773620225,
                                                     43.427029665466065
                                                 ],
                                                 [
                                                     12.619930426770281,
                                                     43.42672160174557
                                                 ],
                                                 [
                                                     12.622283491604538,
                                                     43.42437814794008
                                                 ],
                                                 [
                                                     12.622544012992028,
                                                     43.42404125726713
                                                 ],
                                                 [
                                                     12.622706800588212,
                                                     43.423657959171095
                                                 ],
                                                 [
                                                     12.622843743835864,
                                                     43.42300986731024
                                                 ],
                                                 [
                                                     12.62288057297625,
                                                     43.42239197311091
                                                 ],
                                                 [
                                                     12.62286401895095,
                                                     43.42123556907947
                                                 ],
                                                 [
                                                     12.62280325881439,
                                                     43.420877365206586
                                                 ],
                                                 [
                                                     12.622408994910785,
                                                     43.42022812178546
                                                 ],
                                                 [
                                                     12.619402624751103,
                                                     43.41657354762288
                                                 ],
                                                 [
                                                     12.62244046495262,
                                                     43.41279034733624
                                                 ],
                                                 [
                                                     12.623074512920311,
                                                     43.412058974105214
                                                 ],
                                                 [
                                                     12.62421450482663,
                                                     43.41133403725448
                                                 ],
                                                 [
                                                     12.62814224239381,
                                                     43.40912055297432
                                                 ],
                                                 [
                                                     12.63269529850357,
                                                     43.40606323385961
                                                 ],
                                                 [
                                                     12.633788157500524,
                                                     43.405276676746894
                                                 ],
                                                 [
                                                     12.63522602893759,
                                                     43.40416852602501
                                                 ],
                                                 [
                                                     12.637941755992411,
                                                     43.40134503980883
                                                 ],
                                                 [
                                                     12.639625219203609,
                                                     43.39932865776783
                                                 ],
                                                 [
                                                     12.639879833062183,
                                                     43.398514783328466
                                                 ],
                                                 [
                                                     12.639970529826709,
                                                     43.396490124730256
                                                 ],
                                                 [
                                                     12.639812974223316,
                                                     43.395463344661756
                                                 ],
                                                 [
                                                     12.639896912624407,
                                                     43.39486111026108
                                                 ],
                                                 [
                                                     12.640306975581408,
                                                     43.39451106923827
                                                 ],
                                                 [
                                                     12.64058729077841,
                                                     43.3942786356594
                                                 ],
                                                 [
                                                     12.646340557343912,
                                                     43.390746667524205
                                                 ],
                                                 [
                                                     12.649222692448587,
                                                     43.38935729093543
                                                 ],
                                                 [
                                                     12.652969661038348,
                                                     43.38569019505013
                                                 ],
                                                 [
                                                     12.652622984307355,
                                                     43.38410768375581
                                                 ],
                                                 [
                                                     12.652186166009542,
                                                     43.38168758985808
                                                 ],
                                                 [
                                                     12.652235507367802,
                                                     43.381049927194326
                                                 ],
                                                 [
                                                     12.652956276959914,
                                                     43.38027058474943
                                                 ],
                                                 [
                                                     12.654275634339136,
                                                     43.37967017724253
                                                 ],
                                                 [
                                                     12.655028330711959,
                                                     43.37935798356052
                                                 ],
                                                 [
                                                     12.655757214988263,
                                                     43.37839381037212
                                                 ],
                                                 [
                                                     12.656110848392913,
                                                     43.37563229145031
                                                 ],
                                                 [
                                                     12.654113250832381,
                                                     43.3749170853299
                                                 ],
                                                 [
                                                     12.652329774675627,
                                                     43.374776061273906
                                                 ],
                                                 [
                                                     12.650739289619148,
                                                     43.37471437964399
                                                 ],
                                                 [
                                                     12.650088211115051,
                                                     43.37430301817339
                                                 ],
                                                 [
                                                     12.647137467905974,
                                                     43.37149012949612
                                                 ],
                                                 [
                                                     12.647306810477376,
                                                     43.37059244381562
                                                 ],
                                                 [
                                                     12.650852042541143,
                                                     43.366369137851386
                                                 ],
                                                 [
                                                     12.649810664836943,
                                                     43.35216643431026
                                                 ],
                                                 [
                                                     12.650556769424945,
                                                     43.351622039525445
                                                 ],
                                                 [
                                                     12.653060101651443,
                                                     43.35010143959828
                                                 ],
                                                 [
                                                     12.653951863800037,
                                                     43.349658756169134
                                                 ],
                                                 [
                                                     12.65691473393666,
                                                     43.348677091246415
                                                 ],
                                                 [
                                                     12.657613183697503,
                                                     43.348456656964345
                                                 ],
                                                 [
                                                     12.65867566104508,
                                                     43.34840463037487
                                                 ],
                                                 [
                                                     12.658850363368638,
                                                     43.3484531332461
                                                 ],
                                                 [
                                                     12.669019414580116,
                                                     43.344439943854
                                                 ],
                                                 [
                                                     12.673918449650218,
                                                     43.34057494491828
                                                 ],
                                                 [
                                                     12.679285422439909,
                                                     43.33662337868892
                                                 ],
                                                 [
                                                     12.68636803683125,
                                                     43.33298723131824
                                                 ],
                                                 [
                                                     12.691638314023086,
                                                     43.33237495472846
                                                 ],
                                                 [
                                                     12.69302414261016,
                                                     43.33380759344537
                                                 ],
                                                 [
                                                     12.693713951939907,
                                                     43.33447855500475
                                                 ],
                                                 [
                                                     12.694127599148555,
                                                     43.334600222856544
                                                 ],
                                                 [
                                                     12.696041816488536,
                                                     43.33489392693313
                                                 ],
                                                 [
                                                     12.697065183763858,
                                                     43.33488781880883
                                                 ],
                                                 [
                                                     12.699204036368448,
                                                     43.33446293524033
                                                 ],
                                                 [
                                                     12.70062021266953,
                                                     43.33338617463344
                                                 ],
                                                 [
                                                     12.698532063196414,
                                                     43.33099138487555
                                                 ],
                                                 [
                                                     12.698394886453773,
                                                     43.33041905612478
                                                 ],
                                                 [
                                                     12.701534606177852,
                                                     43.32920597737373
                                                 ],
                                                 [
                                                     12.704809432084254,
                                                     43.322034516241665
                                                 ],
                                                 [
                                                     12.7077399285566,
                                                     43.31212335418055
                                                 ],
                                                 [
                                                     12.707292330318586,
                                                     43.30735256719811
                                                 ],
                                                 [
                                                     12.706910223958001,
                                                     43.297501736702294
                                                 ],
                                                 [
                                                     12.707371244365163,
                                                     43.292794362402006
                                                 ],
                                                 [
                                                     12.705773597500809,
                                                     43.292339171659634
                                                 ],
                                                 [
                                                     12.705067950859387,
                                                     43.29206043723161
                                                 ],
                                                 [
                                                     12.704476221189319,
                                                     43.2913998744753
                                                 ],
                                                 [
                                                     12.702656649965691,
                                                     43.28798805992686
                                                 ],
                                                 [
                                                     12.704303284438241,
                                                     43.28419374601438
                                                 ],
                                                 [
                                                     12.7048453949905,
                                                     43.283253309654434
                                                 ],
                                                 [
                                                     12.705488572414856,
                                                     43.28282278718384
                                                 ],
                                                 [
                                                     12.706651765909179,
                                                     43.28274903688966
                                                 ],
                                                 [
                                                     12.707979896036194,
                                                     43.28279146984907
                                                 ],
                                                 [
                                                     12.708982001752194,
                                                     43.28302003113583
                                                 ],
                                                 [
                                                     12.709443253764476,
                                                     43.28320762487684
                                                 ],
                                                 [
                                                     12.709622070180222,
                                                     43.282715635345674
                                                 ],
                                                 [
                                                     12.707927188854926,
                                                     43.27697246089692
                                                 ],
                                                 [
                                                     12.707107719027233,
                                                     43.27495752696218
                                                 ],
                                                 [
                                                     12.704213098041226,
                                                     43.27120921399868
                                                 ],
                                                 [
                                                     12.703723203302658,
                                                     43.270801941059595
                                                 ],
                                                 [
                                                     12.691043656134527,
                                                     43.26264106280724
                                                 ],
                                                 [
                                                     12.676952134995762,
                                                     43.259980319899846
                                                 ],
                                                 [
                                                     12.668452385379982,
                                                     43.25898859286675
                                                 ],
                                                 [
                                                     12.669333413149694,
                                                     43.25785288221616
                                                 ],
                                                 [
                                                     12.670740202111546,
                                                     43.25553880741518
                                                 ],
                                                 [
                                                     12.670562861148312,
                                                     43.25468917147334
                                                 ],
                                                 [
                                                     12.67031100188454,
                                                     43.253855443672784
                                                 ],
                                                 [
                                                     12.670133463434782,
                                                     43.25334794985214
                                                 ],
                                                 [
                                                     12.663498623287813,
                                                     43.24484103270562
                                                 ],
                                                 [
                                                     12.663026281074474,
                                                     43.244306968864564
                                                 ],
                                                 [
                                                     12.657124462799993,
                                                     43.24017887674156
                                                 ],
                                                 [
                                                     12.656684344323637,
                                                     43.23978330253233
                                                 ],
                                                 [
                                                     12.655890651187722,
                                                     43.23895788494742
                                                 ],
                                                 [
                                                     12.647843680094171,
                                                     43.22884307596029
                                                 ],
                                                 [
                                                     12.645280965254916,
                                                     43.22440511385327
                                                 ],
                                                 [
                                                     12.632806601859173,
                                                     43.21139619448974
                                                 ],
                                                 [
                                                     12.630057630551066,
                                                     43.208647448056844
                                                 ],
                                                 [
                                                     12.615966663729095,
                                                     43.2019274544209
                                                 ],
                                                 [
                                                     12.613364503898136,
                                                     43.20109592948376
                                                 ],
                                                 [
                                                     12.612193789407602,
                                                     43.20082231870055
                                                 ],
                                                 [
                                                     12.611203151257431,
                                                     43.20062854616221
                                                 ],
                                                 [
                                                     12.609716449805592,
                                                     43.20090511467514
                                                 ],
                                                 [
                                                     12.60663351387123,
                                                     43.201713769262625
                                                 ],
                                                 [
                                                     12.606084065261014,
                                                     43.20187965937038
                                                 ],
                                                 [
                                                     12.606061765714031,
                                                     43.2021144685197
                                                 ],
                                                 [
                                                     12.605963393069365,
                                                     43.20245519698692
                                                 ],
                                                 [
                                                     12.603484896106915,
                                                     43.20379840521528
                                                 ],
                                                 [
                                                     12.595551440780602,
                                                     43.20368818765607
                                                 ],
                                                 [
                                                     12.593087433642317,
                                                     43.20343707814834
                                                 ],
                                                 [
                                                     12.591765351748036,
                                                     43.20324455911508
                                                 ],
                                                 [
                                                     12.591126174170007,
                                                     43.2029180101262
                                                 ],
                                                 [
                                                     12.591268883212715,
                                                     43.202427335044064
                                                 ],
                                                 [
                                                     12.592835816936622,
                                                     43.20200891842229
                                                 ],
                                                 [
                                                     12.594101489270423,
                                                     43.201739523665395
                                                 ],
                                                 [
                                                     12.594533909433567,
                                                     43.20138829467604
                                                 ],
                                                 [
                                                     12.594308000152797,
                                                     43.20086868297707
                                                 ],
                                                 [
                                                     12.590498622845724,
                                                     43.19449687459935
                                                 ],
                                                 [
                                                     12.589867103605638,
                                                     43.19424661903275
                                                 ],
                                                 [
                                                     12.582876336217572,
                                                     43.193966341132565
                                                 ],
                                                 [
                                                     12.581937783640766,
                                                     43.19405429690509
                                                 ],
                                                 [
                                                     12.579945119020696,
                                                     43.19463444995141
                                                 ],
                                                 [
                                                     12.576173425837899,
                                                     43.19634620240237
                                                 ],
                                                 [
                                                     12.575652208169574,
                                                     43.19674516836079
                                                 ],
                                                 [
                                                     12.57530570177139,
                                                     43.19710715147075
                                                 ],
                                                 [
                                                     12.573854935813745,
                                                     43.1980258842778
                                                 ],
                                                 [
                                                     12.573222853250542,
                                                     43.19842380676795
                                                 ],
                                                 [
                                                     12.569933123666372,
                                                     43.20008426741283
                                                 ],
                                                 [
                                                     12.569216976867388,
                                                     43.20042626777553
                                                 ],
                                                 [
                                                     12.565156750499423,
                                                     43.201619949533914
                                                 ],
                                                 [
                                                     12.564288813866977,
                                                     43.20180009549767
                                                 ],
                                                 [
                                                     12.562548745620658,
                                                     43.20191738783505
                                                 ],
                                                 [
                                                     12.562110648168648,
                                                     43.201791480831545
                                                 ],
                                                 [
                                                     12.558295123510568,
                                                     43.20032178101981
                                                 ],
                                                 [
                                                     12.556475428435764,
                                                     43.20420832863432
                                                 ],
                                                 [
                                                     12.55571116808972,
                                                     43.204088362135344
                                                 ],
                                                 [
                                                     12.555547689775407,
                                                     43.20406256321865
                                                 ],
                                                 [
                                                     12.554256191932105,
                                                     43.20368374848413
                                                 ],
                                                 [
                                                     12.540986900844143,
                                                     43.1988520491793
                                                 ],
                                                 [
                                                     12.53999378084197,
                                                     43.19847079526418
                                                 ],
                                                 [
                                                     12.539375196381357,
                                                     43.19786117526842
                                                 ],
                                                 [
                                                     12.538923613208901,
                                                     43.197232199712026
                                                 ],
                                                 [
                                                     12.53840354785591,
                                                     43.19669877512659
                                                 ],
                                                 [
                                                     12.537667207663747,
                                                     43.19634074725555
                                                 ],
                                                 [
                                                     12.537232763553508,
                                                     43.1962210821713
                                                 ],
                                                 [
                                                     12.536847562893,
                                                     43.1961162103521
                                                 ],
                                                 [
                                                     12.535932943255764,
                                                     43.19591491081658
                                                 ],
                                                 [
                                                     12.534762018069319,
                                                     43.1957469072524
                                                 ],
                                                 [
                                                     12.5339275709199,
                                                     43.19563047505375
                                                 ],
                                                 [
                                                     12.533106493605427,
                                                     43.19582665271892
                                                 ],
                                                 [
                                                     12.532604924120598,
                                                     43.19635549580657
                                                 ],
                                                 [
                                                     12.530477703045491,
                                                     43.198771177993805
                                                 ],
                                                 [
                                                     12.526319365019024,
                                                     43.20457772478871
                                                 ],
                                                 [
                                                     12.52629295219521,
                                                     43.20515342504734
                                                 ],
                                                 [
                                                     12.527134158337455,
                                                     43.20695445372187
                                                 ],
                                                 [
                                                     12.529092756707254,
                                                     43.20966202424439
                                                 ],
                                                 [
                                                     12.530910456329455,
                                                     43.21220445207892
                                                 ],
                                                 [
                                                     12.53112383148021,
                                                     43.212713293969
                                                 ],
                                                 [
                                                     12.530610757207416,
                                                     43.21322444914132
                                                 ],
                                                 [
                                                     12.529730845793923,
                                                     43.21397980597135
                                                 ],
                                                 [
                                                     12.529043367849438,
                                                     43.214541205190976
                                                 ],
                                                 [
                                                     12.527322263208262,
                                                     43.214647329153806
                                                 ],
                                                 [
                                                     12.524908142621838,
                                                     43.214748862884285
                                                 ],
                                                 [
                                                     12.524522427183657,
                                                     43.21473424572171
                                                 ],
                                                 [
                                                     12.523800909960418,
                                                     43.21470664013283
                                                 ],
                                                 [
                                                     12.512460109373086,
                                                     43.21282361746405
                                                 ],
                                                 [
                                                     12.493591790013735,
                                                     43.210781316848404
                                                 ],
                                                 [
                                                     12.492717302364285,
                                                     43.21079905081526
                                                 ],
                                                 [
                                                     12.4922815588127,
                                                     43.210932355442864
                                                 ],
                                                 [
                                                     12.491248850058545,
                                                     43.211250997710145
                                                 ],
                                                 [
                                                     12.482947642938155,
                                                     43.21428454442905
                                                 ],
                                                 [
                                                     12.480035799251297,
                                                     43.21565130374334
                                                 ],
                                                 [
                                                     12.4640799204382,
                                                     43.22455502938154
                                                 ],
                                                 [
                                                     12.46305131122005,
                                                     43.22537753877994
                                                 ],
                                                 [
                                                     12.46230496686462,
                                                     43.226153332175286
                                                 ],
                                                 [
                                                     12.45845085701872,
                                                     43.23023576661662
                                                 ],
                                                 [
                                                     12.459358924256147,
                                                     43.23103661333902
                                                 ],
                                                 [
                                                     12.462707613703023,
                                                     43.23329413196291
                                                 ],
                                                 [
                                                     12.463798466622382,
                                                     43.23373376180226
                                                 ],
                                                 [
                                                     12.46486510083986,
                                                     43.233812815461235
                                                 ],
                                                 [
                                                     12.465307431068789,
                                                     43.233846420294086
                                                 ],
                                                 [
                                                     12.475189132771078,
                                                     43.2426930943634
                                                 ],
                                                 [
                                                     12.476680410557822,
                                                     43.245456725002434
                                                 ],
                                                 [
                                                     12.4769016966659,
                                                     43.246436019358086
                                                 ],
                                                 [
                                                     12.479909949492324,
                                                     43.25488766609437
                                                 ],
                                                 [
                                                     12.481912499109134,
                                                     43.25711077105403
                                                 ],
                                                 [
                                                     12.48225695059254,
                                                     43.257351840819325
                                                 ],
                                                 [
                                                     12.482978946294628,
                                                     43.257766513273594
                                                 ],
                                                 [
                                                     12.483341222599377,
                                                     43.258015631214754
                                                 ],
                                                 [
                                                     12.483204796766978,
                                                     43.25833677946152
                                                 ],
                                                 [
                                                     12.483136557651397,
                                                     43.25849734576672
                                                 ],
                                                 [
                                                     12.479973145818834,
                                                     43.261058696359676
                                                 ],
                                                 [
                                                     12.479948025399858,
                                                     43.261076591841615
                                                 ],
                                                 [
                                                     12.47724971179649,
                                                     43.262923649723476
                                                 ],
                                                 [
                                                     12.476404166144329,
                                                     43.263328383118136
                                                 ],
                                                 [
                                                     12.474596211632939,
                                                     43.26363039451669
                                                 ],
                                                 [
                                                     12.473201301902336,
                                                     43.26367749196746
                                                 ],
                                                 [
                                                     12.45967980475653,
                                                     43.2648759708734
                                                 ],
                                                 [
                                                     12.443607985892378,
                                                     43.266394688614064
                                                 ],
                                                 [
                                                     12.4430686332532,
                                                     43.26661632245377
                                                 ],
                                                 [
                                                     12.44284891146675,
                                                     43.2667076348049
                                                 ],
                                                 [
                                                     12.442562137507238,
                                                     43.26731664325667
                                                 ],
                                                 [
                                                     12.441928223768608,
                                                     43.27516304888772
                                                 ],
                                                 [
                                                     12.435684398922907,
                                                     43.28150039359911
                                                 ],
                                                 [
                                                     12.433360689621825,
                                                     43.28404624480401
                                                 ],
                                                 [
                                                     12.433217031867084,
                                                     43.2845592675185
                                                 ],
                                                 [
                                                     12.433321591632989,
                                                     43.28510417987017
                                                 ],
                                                 [
                                                     12.411389165939477,
                                                     43.285357160456755
                                                 ],
                                                 [
                                                     12.410933671581226,
                                                     43.28582093786704
                                                 ],
                                                 [
                                                     12.410303525486347,
                                                     43.28847781337934
                                                 ],
                                                 [
                                                     12.410240575332097,
                                                     43.28978969777505
                                                 ],
                                                 [
                                                     12.41025671500196,
                                                     43.291193780424095
                                                 ],
                                                 [
                                                     12.410373791584593,
                                                     43.29241928663565
                                                 ],
                                                 [
                                                     12.41071388070301,
                                                     43.29344453938204
                                                 ],
                                                 [
                                                     12.411553581083059,
                                                     43.295467786930566
                                                 ],
                                                 [
                                                     12.412111219282874,
                                                     43.29640101746791
                                                 ],
                                                 [
                                                     12.412805405572502,
                                                     43.296690894127046
                                                 ],
                                                 [
                                                     12.414006745963436,
                                                     43.29721773235316
                                                 ],
                                                 [
                                                     12.414544019566268,
                                                     43.29780041932458
                                                 ],
                                                 [
                                                     12.414746261083875,
                                                     43.29857767737935
                                                 ],
                                                 [
                                                     12.413739720956407,
                                                     43.301322341952215
                                                 ],
                                                 [
                                                     12.413326842532951,
                                                     43.30164080659415
                                                 ],
                                                 [
                                                     12.411923045420252,
                                                     43.30193032506467
                                                 ],
                                                 [
                                                     12.411057758326859,
                                                     43.30190215426959
                                                 ],
                                                 [
                                                     12.400621714017426,
                                                     43.30092573579925
                                                 ],
                                                 [
                                                     12.39959018078608,
                                                     43.300800456860244
                                                 ],
                                                 [
                                                     12.399043896731946,
                                                     43.300734103830465
                                                 ],
                                                 [
                                                     12.395934052895232,
                                                     43.300025265131914
                                                 ],
                                                 [
                                                     12.39395607840416,
                                                     43.29903961631764
                                                 ],
                                                 [
                                                     12.393519685598237,
                                                     43.298494364414495
                                                 ],
                                                 [
                                                     12.39301319894494,
                                                     43.298032215522895
                                                 ],
                                                 [
                                                     12.39129455806754,
                                                     43.29703881974459
                                                 ],
                                                 [
                                                     12.38706889958195,
                                                     43.294670174054524
                                                 ],
                                                 [
                                                     12.38268272169994,
                                                     43.294512006914566
                                                 ],
                                                 [
                                                     12.37954734646858,
                                                     43.295320594110066
                                                 ],
                                                 [
                                                     12.374646896378101,
                                                     43.29681148266336
                                                 ],
                                                 [
                                                     12.373914834422889,
                                                     43.29764342130694
                                                 ],
                                                 [
                                                     12.373872976699005,
                                                     43.29889165843239
                                                 ],
                                                 [
                                                     12.37616114946356,
                                                     43.308277834256565
                                                 ],
                                                 [
                                                     12.379112286546176,
                                                     43.308789330957715
                                                 ],
                                                 [
                                                     12.38013492058324,
                                                     43.309443346127246
                                                 ],
                                                 [
                                                     12.383655918915995,
                                                     43.31606481449305
                                                 ],
                                                 [
                                                     12.383926979077064,
                                                     43.31674104939503
                                                 ],
                                                 [
                                                     12.383288861060324,
                                                     43.31744871489501
                                                 ],
                                                 [
                                                     12.38163873042778,
                                                     43.317988276443245
                                                 ],
                                                 [
                                                     12.380540881322434,
                                                     43.318425915629106
                                                 ],
                                                 [
                                                     12.380682683716246,
                                                     43.31943912865492
                                                 ],
                                                 [
                                                     12.381071492168731,
                                                     43.320431533382504
                                                 ],
                                                 [
                                                     12.385030535380782,
                                                     43.32539230009132
                                                 ],
                                                 [
                                                     12.385495076409615,
                                                     43.32554059974274
                                                 ],
                                                 [
                                                     12.390256918417586,
                                                     43.327753827455155
                                                 ],
                                                 [
                                                     12.387286656389856,
                                                     43.33593614012408
                                                 ],
                                                 [
                                                     12.387347684280805,
                                                     43.337032758139664
                                                 ],
                                                 [
                                                     12.387579563372775,
                                                     43.337404035008724
                                                 ],
                                                 [
                                                     12.387831358564966,
                                                     43.33765329875016
                                                 ],
                                                 [
                                                     12.388140501961814,
                                                     43.337951660505844
                                                 ],
                                                 [
                                                     12.393990404422354,
                                                     43.340896206452676
                                                 ],
                                                 [
                                                     12.395347522420764,
                                                     43.34135556647723
                                                 ],
                                                 [
                                                     12.396764509633776,
                                                     43.34175461923101
                                                 ],
                                                 [
                                                     12.397019785643158,
                                                     43.342156693409706
                                                 ],
                                                 [
                                                     12.398608247252193,
                                                     43.345211171847325
                                                 ],
                                                 [
                                                     12.39889170155938,
                                                     43.34608959210104
                                                 ],
                                                 [
                                                     12.399144234578037,
                                                     43.347090465041035
                                                 ],
                                                 [
                                                     12.399162200014583,
                                                     43.347486688157694
                                                 ],
                                                 [
                                                     12.401139216566907,
                                                     43.350848564343174
                                                 ],
                                                 [
                                                     12.404359214746158,
                                                     43.36021536685527
                                                 ],
                                                 [
                                                     12.407253353070612,
                                                     43.36699427524061
                                                 ],
                                                 [
                                                     12.407705037135727,
                                                     43.36800720018516
                                                 ],
                                                 [
                                                     12.408356939906913,
                                                     43.368685510563466
                                                 ],
                                                 [
                                                     12.40926068584738,
                                                     43.368942155299116
                                                 ],
                                                 [
                                                     12.414336813600455,
                                                     43.37028514983752
                                                 ],
                                                 [
                                                     12.419169857360398,
                                                     43.37172069851258
                                                 ],
                                                 [
                                                     12.42011935737438,
                                                     43.37216044609525
                                                 ],
                                                 [
                                                     12.420271316915695,
                                                     43.37224800021616
                                                 ],
                                                 [
                                                     12.421062505123738,
                                                     43.37270392784203
                                                 ],
                                                 [
                                                     12.42158166128094,
                                                     43.373156548502145
                                                 ],
                                                 [
                                                     12.427441419108801,
                                                     43.38016567878652
                                                 ],
                                                 [
                                                     12.435071917501674,
                                                     43.39335407090152
                                                 ],
                                                 [
                                                     12.438497995325417,
                                                     43.40127516764817
                                                 ],
                                                 [
                                                     12.44389695163027,
                                                     43.415301952739966
                                                 ],
                                                 [
                                                     12.443976193254455,
                                                     43.41554101356872
                                                 ],
                                                 [
                                                     12.444200697012398,
                                                     43.41624714546491
                                                 ],
                                                 [
                                                     12.444237830622798,
                                                     43.41648606583005
                                                 ],
                                                 [
                                                     12.444258946525169,
                                                     43.41662193142862
                                                 ],
                                                 [
                                                     12.444453667122703,
                                                     43.41790067238297
                                                 ],
                                                 [
                                                     12.444477804518495,
                                                     43.41877567053957
                                                 ],
                                                 [
                                                     12.444412583731268,
                                                     43.41980463674088
                                                 ],
                                                 [
                                                     12.444413282708409,
                                                     43.420945034006444
                                                 ],
                                                 [
                                                     12.444701292831258,
                                                     43.42211580137892
                                                 ],
                                                 [
                                                     12.44701873656171,
                                                     43.426435059991945
                                                 ],
                                                 [
                                                     12.451083200887455,
                                                     43.43148930183743
                                                 ],
                                                 [
                                                     12.45166139374721,
                                                     43.43211107511626
                                                 ],
                                                 [
                                                     12.453036171394972,
                                                     43.43351456604347
                                                 ],
                                                 [
                                                     12.453452835438782,
                                                     43.43391612672608
                                                 ],
                                                 [
                                                     12.453846661251106,
                                                     43.43426886984606
                                                 ],
                                                 [
                                                     12.455306668230792,
                                                     43.43521506728655
                                                 ],
                                                 [
                                                     12.458168325146888,
                                                     43.43679860759285
                                                 ],
                                                 [
                                                     12.45923176980145,
                                                     43.437383133432434
                                                 ],
                                                 [
                                                     12.460834680138047,
                                                     43.43746062318902
                                                 ],
                                                 [
                                                     12.462657535463627,
                                                     43.437306338088476
                                                 ],
                                                 [
                                                     12.463924063726832,
                                                     43.4374299940376
                                                 ],
                                                 [
                                                     12.465253032254699,
                                                     43.43817296845918
                                                 ],
                                                 [
                                                     12.475685681331194,
                                                     43.44639119646204
                                                 ],
                                                 [
                                                     12.485218867297037,
                                                     43.45252460979818
                                                 ],
                                                 [
                                                     12.493223254893644,
                                                     43.45738947113984
                                                 ],
                                                 [
                                                     12.493896388559794,
                                                     43.4578370636117
                                                 ],
                                                 [
                                                     12.497184637585459,
                                                     43.46354810554286
                                                 ],
                                                 [
                                                     12.497356736751202,
                                                     43.46415399370351
                                                 ],
                                                 [
                                                     12.497337681166657,
                                                     43.46611007787201
                                                 ],
                                                 [
                                                     12.496612701708386,
                                                     43.473491810100995
                                                 ],
                                                 [
                                                     12.495109483968651,
                                                     43.47728774078007
                                                 ],
                                                 [
                                                     12.491852257457671,
                                                     43.48368971299367
                                                 ],
                                                 [
                                                     12.491241841329202,
                                                     43.48499137046238
                                                 ],
                                                 [
                                                     12.49039568510687,
                                                     43.4875111649113
                                                 ],
                                                 [
                                                     12.490311729224706,
                                                     43.488357990723124
                                                 ],
                                                 [
                                                     12.49024397982011,
                                                     43.48967877256761
                                                 ],
                                                 [
                                                     12.491358607507932,
                                                     43.491438691045055
                                                 ],
                                                 [
                                                     12.492391902302677,
                                                     43.492415480508875
                                                 ],
                                                 [
                                                     12.495062546887453,
                                                     43.493958867393296
                                                 ],
                                                 [
                                                     12.501840374202986,
                                                     43.49692490655131
                                                 ],
                                                 [
                                                     12.502475173533844,
                                                     43.49698116521397
                                                 ],
                                                 [
                                                     12.50308583875177,
                                                     43.49703526785222
                                                 ],
                                                 [
                                                     12.504315563488978,
                                                     43.49628628039431
                                                 ],
                                                 [
                                                     12.505267251620515,
                                                     43.495595321105526
                                                 ],
                                                 [
                                                     12.505411985170488,
                                                     43.49549184379786
                                                 ],
                                                 [
                                                     12.50641105193664,
                                                     43.49529911336228
                                                 ],
                                                 [
                                                     12.509683597381047,
                                                     43.496269990575016
                                                 ],
                                                 [
                                                     12.514198483993235,
                                                     43.49780125837764
                                                 ],
                                                 [
                                                     12.51529323083166,
                                                     43.49821772966856
                                                 ],
                                                 [
                                                     12.522170508543795,
                                                     43.50187875142494
                                                 ],
                                                 [
                                                     12.52216679478511,
                                                     43.4992619098753
                                                 ]
                                             ]
                                         ]
                                     ]
                 }
}
